{"type":"FeatureCollection","features":[{"type":"Feature","properties":{"name":"Kładka pieszo-rowerowa przy Stopniu Wodnym Kościuszko","rail":0},"geometry":{"type":"Point","coordinates":[19.872737,50.045438]}},{"type":"Feature","properties":{"name":"Most Zwierzyniecki","rail":0},"geometry":{"type":"Point","coordinates":[19.906087,50.049215]}},{"type":"Feature","properties":{"name":"Most Dębnicki","rail":0},"geometry":{"type":"Point","coordinates":[19.93159,50.054252]}},{"type":"Feature","properties":{"name":"Most Marszałka Józefa Piłsudskiego","rail":0},"geometry":{"type":"Point","coordinates":[19.945322,50.045438]}},{"type":"Feature","properties":{"name":"Most Powstańców Śląskich","rail":0},"geometry":{"type":"Point","coordinates":[19.953169,50.049215]}},{"type":"Feature","properties":{"name":"most","rail":0},"geometry":{"type":"Point","coordinates":[19.959054,50.049215]}},{"type":"Feature","properties":{"name":"most kolejowy","rail":1},"geometry":{"type":"Point","coordinates":[19.953169,50.049215]}},{"type":"Feature","properties":{"name":"Most Kotlarski","rail":0},"geometry":{"type":"Point","coordinates":[19.961016,50.051733]}},{"type":"Feature","properties":{"name":"Mała Obwodnica","rail":0},"geometry":{"type":"Point","coordinates":[19.968863,50.052992]}},{"type":"Feature","properties":{"name":"Ofiar Dąbia","rail":0},"geometry":{"type":"Point","coordinates":[19.972786,50.054252]}},{"type":"Feature","properties":{"name":"Nowohucka","rail":0},"geometry":{"type":"Point","coordinates":[19.982595,50.055511]}},{"type":"Feature","properties":{"name":"Półłanki","rail":0},"geometry":{"type":"Point","coordinates":[19.996327,50.055511]}}]}