{"type":"FeatureCollection","features":[{"type":"Feature","properties":{"name":"Wisła"},"geometry":{"type":"LineString","coordinates":[[19.837426,50.036625],[19.843311,50.032848],[19.843311,50.03033],[19.847234,50.027811],[19.868814,50.027811],[19.870775,50.029071],[19.870775,50.032848],[19.872737,50.034107],[19.872737,50.045438],[19.878622,50.049215],[19.880584,50.049215],[19.890393,50.04292],[19.902163,50.04292],[19.906087,50.045438],[19.906087,50.049215],[19.913934,50.054252],[19.93159,50.054252],[19.945322,50.045438],[19.951207,50.049215],[19.953169,50.049215],[19.959054,50.049215],[19.953169,50.049215],[19.957092,50.051733],[19.961016,50.051733],[19.962978,50.052992],[19.968863,50.052992],[19.970825,50.054252],[19.972786,50.054252],[19.97671,50.05677],[19.978672,50.055511],[19.982595,50.055511],[19.986519,50.052992],[19.994366,50.052992],[19.996327,50.054252],[19.996327,50.055511],[20.008098,50.055511],[20.01006,50.054252],[20.019868,50.054252],[20.033601,50.054252],[20.037524,50.05677],[20.037524,50.061806],[20.043409,50.065583],[20.045371,50.065583],[20.051256,50.06936],[20.053218,50.06936],[20.057142,50.071878],[20.057142,50.074396]]}}]}