{"type":"FeatureCollection","features":[{"type":"Feature","properties":{"name":"Plac Centralny im. R. Reagana","mode":"bus","text":"189 662","n":2,"tip":0},"geometry":{"type":"Point","coordinates":[20.022329,50.068398]}},{"type":"Feature","properties":{"name":"Plac Centralny im. R. Reagana","mode":"tram","text":"62","n":1,"tip":0},"geometry":{"type":"Point","coordinates":[20.022329,50.068398]}},{"type":"Feature","properties":{"name":"Kombinat","mode":"bus","text":"132 138 139 174 242 272","n":6,"tip":0},"geometry":{"type":"Point","coordinates":[20.038808,50.071923]}},{"type":"Feature","properties":{"name":"Kombinat","mode":"tram","text":"75","n":1,"tip":0},"geometry":{"type":"Point","coordinates":[20.038808,50.071923]}},{"type":"Feature","properties":{"name":"Wzgórza Krzesławickie","mode":"tram","text":"1 5 74","n":3,"tip":0},"geometry":{"type":"Point","coordinates":[20.030569,50.084262]}},{"type":"Feature","properties":{"name":"Zesławice","mode":"bus","text":"122","n":1,"tip":1},"geometry":{"type":"Point","coordinates":[20.016837,50.093075]}},{"type":"Feature","properties":{"name":"Aleja Przyjaźni","mode":"bus","text":"122 160 502 572","n":4,"tip":0},"geometry":{"type":"Point","coordinates":[20.022329,50.071923]}},{"type":"Feature","properties":{"name":"Mistrzejowice","mode":"bus","text":"123 183 482","n":3,"tip":0},"geometry":{"type":"Point","coordinates":[19.992119,50.091312]}},{"type":"Feature","properties":{"name":"Mistrzejowice","mode":"tram","text":"14 16","n":2,"tip":0},"geometry":{"type":"Point","coordinates":[19.992119,50.091312]}},{"type":"Feature","properties":{"name":"Os. Piastów","mode":"bus","text":"105 664","n":2,"tip":0},"geometry":{"type":"Point","coordinates":[20.000358,50.094838]}},{"type":"Feature","properties":{"name":"Os. Piastów","mode":"tram","text":"21 52","n":2,"tip":0},"geometry":{"type":"Point","coordinates":[20.000358,50.094838]}},{"type":"Feature","properties":{"name":"Os. Na Stoku","mode":"bus","text":"180 182 608","n":3,"tip":1},"geometry":{"type":"Point","coordinates":[20.022329,50.08955]}},{"type":"Feature","properties":{"name":"Zajezdnia Bieńczyce","mode":"bus","text":"601","n":1,"tip":0},"geometry":{"type":"Point","coordinates":[20.016837,50.084262]}},{"type":"Feature","properties":{"name":"Rondo Hipokratesa","mode":"tram","text":"9","n":1,"tip":0},"geometry":{"type":"Point","coordinates":[20.011344,50.082499]}},{"type":"Feature","properties":{"name":"Lesisko","mode":"bus","text":"149 183","n":2,"tip":0},"geometry":{"type":"Point","coordinates":[20.027822,50.054296]}},{"type":"Feature","properties":{"name":"Zalew Nowohucki","mode":"tram","text":"75","n":1,"tip":0},"geometry":{"type":"Point","coordinates":[20.030569,50.07016]}},{"type":"Feature","properties":{"name":"Zajezdnia Nowa Huta","mode":"bus","text":"601","n":1,"tip":0},"geometry":{"type":"Point","coordinates":[20.036062,50.075448]}},{"type":"Feature","properties":{"name":"Pleszów","mode":"bus","text":"111 160 161 171 211 271","n":6,"tip":0},"geometry":{"type":"Point","coordinates":[20.055287,50.06311]}},{"type":"Feature","properties":{"name":"Pleszów","mode":"tram","text":"10 21","n":2,"tip":0},"geometry":{"type":"Point","coordinates":[20.055287,50.06311]}},{"type":"Feature","properties":{"name":"Ruszcza","mode":"bus","text":"160","n":1,"tip":0},"geometry":{"type":"Point","coordinates":[20.06078,50.073686]}},{"type":"Feature","properties":{"name":"Wróżenice","mode":"bus","text":"171","n":1,"tip":0},"geometry":{"type":"Point","coordinates":[20.069019,50.084262]}},{"type":"Feature","properties":{"name":"Czyżyny Dworzec","mode":"bus","text":"113 148 202 212 222 232 262 611","n":8,"tip":0},"geometry":{"type":"Point","coordinates":[20.005851,50.077211]}},{"type":"Feature","properties":{"name":"Czerwone Maki P+R","mode":"bus","text":"104 116 156 203 204 223 233 253 283 476 662 903","n":12,"tip":0},"geometry":{"type":"Point","coordinates":[19.895993,50.022568]}},{"type":"Feature","properties":{"name":"Czerwone Maki P+R","mode":"tram","text":"11 18 52 62 77","n":5,"tip":0},"geometry":{"type":"Point","coordinates":[19.895993,50.022568]}},{"type":"Feature","properties":{"name":"Kliny","mode":"bus","text":"151 191 194 494 608","n":5,"tip":1},"geometry":{"type":"Point","coordinates":[19.901486,50.004942]}},{"type":"Feature","properties":{"name":"Salwator","mode":"bus","text":"209 229 239 249 259 269 279 310","n":8,"tip":0},"geometry":{"type":"Point","coordinates":[19.904232,50.052534]}},{"type":"Feature","properties":{"name":"Salwator","mode":"tram","text":"1 13","n":2,"tip":0},"geometry":{"type":"Point","coordinates":[19.904232,50.052534]}},{"type":"Feature","properties":{"name":"Bielany","mode":"bus","text":"102 609","n":2,"tip":0},"geometry":{"type":"Point","coordinates":[19.854796,50.045483]}},{"type":"Feature","properties":{"name":"Bielany Obwodnica","mode":"bus","text":"146","n":1,"tip":0},"geometry":{"type":"Point","coordinates":[19.849303,50.045483]}},{"type":"Feature","properties":{"name":"Baba Jaga","mode":"bus","text":"434","n":1,"tip":0},"geometry":{"type":"Point","coordinates":[19.871275,50.057822]}},{"type":"Feature","properties":{"name":"ZOO","mode":"bus","text":"134 434","n":2,"tip":1},"geometry":{"type":"Point","coordinates":[19.865782,50.054296]}},{"type":"Feature","properties":{"name":"Chełm","mode":"bus","text":"126 192","n":2,"tip":0},"geometry":{"type":"Point","coordinates":[19.863035,50.064872]}},{"type":"Feature","properties":{"name":"Olszanica Bory","mode":"bus","text":"192","n":1,"tip":0},"geometry":{"type":"Point","coordinates":[19.849303,50.059584]}},{"type":"Feature","properties":{"name":"Cichy Kącik","mode":"tram","text":"8 77","n":2,"tip":0},"geometry":{"type":"Point","coordinates":[19.893246,50.06311]}},{"type":"Feature","properties":{"name":"Przybyszewskiego","mode":"bus","text":"139","n":1,"tip":0},"geometry":{"type":"Point","coordinates":[19.893246,50.073686]}},{"type":"Feature","properties":{"name":"Bronowice Małe","mode":"bus","text":"200 210 218 228 230 238 248 258 268 278 288 298 664 704 708 910 918 948","n":18,"tip":0},"geometry":{"type":"Point","coordinates":[19.885007,50.080736]}},{"type":"Feature","properties":{"name":"Lindego","mode":"bus","text":"120 572","n":2,"tip":0},"geometry":{"type":"Point","coordinates":[19.876768,50.077211]}},{"type":"Feature","properties":{"name":"Azory","mode":"bus","text":"130 138 173 494","n":4,"tip":0},"geometry":{"type":"Point","coordinates":[19.906979,50.087787]}},{"type":"Feature","properties":{"name":"Rondo Ofiar Katynia","mode":"bus","text":"238 258","n":2,"tip":0},"geometry":{"type":"Point","coordinates":[19.893246,50.086024]}},{"type":"Feature","properties":{"name":"Tonie","mode":"bus","text":"420","n":1,"tip":0},"geometry":{"type":"Point","coordinates":[19.901486,50.098363]}},{"type":"Feature","properties":{"name":"Prądnik Biały","mode":"bus","text":"144 904","n":2,"tip":1},"geometry":{"type":"Point","coordinates":[19.934443,50.100126]}},{"type":"Feature","properties":{"name":"Szpital Okulistyczny","mode":"bus","text":"149","n":1,"tip":0},"geometry":{"type":"Point","coordinates":[20.027822,50.08955]}},{"type":"Feature","properties":{"name":"Krowodrza Górka P+R","mode":"bus","text":"102 137 150 168 194 207 220 227 240 267 290 937","n":12,"tip":0},"geometry":{"type":"Point","coordinates":[19.931697,50.093075]}},{"type":"Feature","properties":{"name":"Krowodrza Górka P+R","mode":"tram","text":"3 5","n":2,"tip":0},"geometry":{"type":"Point","coordinates":[19.931697,50.093075]}},{"type":"Feature","properties":{"name":"Witkowice","mode":"bus","text":"317","n":1,"tip":0},"geometry":{"type":"Point","coordinates":[19.942682,50.103651]}},{"type":"Feature","properties":{"name":"Górka Narodowa P+R","mode":"bus","text":"128 169 217 247 257 277 280 297 469 503 669 917","n":12,"tip":0},"geometry":{"type":"Point","coordinates":[19.961908,50.103651]}},{"type":"Feature","properties":{"name":"Górka Narodowa P+R","mode":"tram","text":"18 50 69 75","n":4,"tip":0},"geometry":{"type":"Point","coordinates":[19.961908,50.103651]}},{"type":"Feature","properties":{"name":"Mydlniki Wapiennik SKA P+R","mode":"bus","text":"164 199 601","n":3,"tip":1},"geometry":{"type":"Point","coordinates":[19.865782,50.082499]}},{"type":"Feature","properties":{"name":"Os. Gotyk","mode":"bus","text":"137","n":1,"tip":0},"geometry":{"type":"Point","coordinates":[19.964654,50.098363]}},{"type":"Feature","properties":{"name":"Dworzec Główny Wschód","mode":"bus","text":"125 182 192 317 482 609 902","n":7,"tip":0},"geometry":{"type":"Point","coordinates":[19.950922,50.073686]}},{"type":"Feature","properties":{"name":"Bronowice Wielkie Wschód","mode":"bus","text":"168 611","n":2,"tip":0},"geometry":{"type":"Point","coordinates":[19.904232,50.091312]}},{"type":"Feature","properties":{"name":"Kliny Poranne","mode":"bus","text":"121","n":1,"tip":0},"geometry":{"type":"Point","coordinates":[19.915218,50.003179]}},{"type":"Feature","properties":{"name":"Swoszowice SKA P+R","mode":"bus","text":"104 155","n":2,"tip":0},"geometry":{"type":"Point","coordinates":[19.92895,50.004942]}},{"type":"Feature","properties":{"name":"Os. Podwawelskie","mode":"bus","text":"112 124 126 146 162 219 300 424 708 LR0","n":10,"tip":1},"geometry":{"type":"Point","coordinates":[19.931697,50.041958]}},{"type":"Feature","properties":{"name":"Kostrze OSP","mode":"bus","text":"176 476","n":2,"tip":0},"geometry":{"type":"Point","coordinates":[19.868528,50.031382]}},{"type":"Feature","properties":{"name":"Tyniec Kamieniołom","mode":"bus","text":"112","n":1,"tip":0},"geometry":{"type":"Point","coordinates":[19.857543,50.022568]}},{"type":"Feature","properties":{"name":"Sidzina","mode":"bus","text":"156 175 475 610","n":4,"tip":0},"geometry":{"type":"Point","coordinates":[19.8905,50.004942]}},{"type":"Feature","properties":{"name":"Łagiewniki","mode":"bus","text":"915","n":1,"tip":0},"geometry":{"type":"Point","coordinates":[19.934443,50.024331]}},{"type":"Feature","properties":{"name":"Borek Fałęcki","mode":"bus","text":"121 151 175 191 214 215 225 235 243 245 254 255 265 275 285 293 475 610","n":18,"tip":0},"geometry":{"type":"Point","coordinates":[19.926204,50.011992]}},{"type":"Feature","properties":{"name":"Borek Fałęcki","mode":"tram","text":"8 22 50","n":3,"tip":0},"geometry":{"type":"Point","coordinates":[19.926204,50.011992]}},{"type":"Feature","properties":{"name":"Piaskowa","mode":"bus","text":"150","n":1,"tip":1},"geometry":{"type":"Point","coordinates":[19.904232,50.094838]}},{"type":"Feature","properties":{"name":"Kurdwanów P+R","mode":"tram","text":"10 50 74","n":3,"tip":0},"geometry":{"type":"Point","coordinates":[19.953668,50.013755]}},{"type":"Feature","properties":{"name":"Kurdwanów Południe","mode":"bus","text":"174 179","n":2,"tip":1},"geometry":{"type":"Point","coordinates":[19.959161,50.008467]}},{"type":"Feature","properties":{"name":"Tor Kajakowy","mode":"bus","text":"203","n":1,"tip":0},"geometry":{"type":"Point","coordinates":[19.860289,50.038432]}},{"type":"Feature","properties":{"name":"Golkowice Pętla","mode":"bus","text":"254 G3","n":2,"tip":0},"geometry":{"type":"Point","coordinates":[19.961908,49.996128]}},{"type":"Feature","properties":{"name":"Soboniowice","mode":"bus","text":"107","n":1,"tip":0},"geometry":{"type":"Point","coordinates":[19.97564,49.999654]}},{"type":"Feature","properties":{"name":"Zajezdnia Wola Duchacka","mode":"bus","text":"107 169","n":2,"tip":0},"geometry":{"type":"Point","coordinates":[19.961908,50.019043]}},{"type":"Feature","properties":{"name":"Nowosądecka","mode":"bus","text":"904","n":1,"tip":0},"geometry":{"type":"Point","coordinates":[19.964654,50.013755]}},{"type":"Feature","properties":{"name":"Piaski Wielkie","mode":"bus","text":"169 469","n":2,"tip":0},"geometry":{"type":"Point","coordinates":[19.97564,50.008467]}},{"type":"Feature","properties":{"name":"Piaski Nowe","mode":"bus","text":"164","n":1,"tip":0},"geometry":{"type":"Point","coordinates":[19.97564,50.015518]}},{"type":"Feature","properties":{"name":"Podgórze SKA","mode":"bus","text":"127 155 158 669","n":4,"tip":0},"geometry":{"type":"Point","coordinates":[19.967401,50.03667]}},{"type":"Feature","properties":{"name":"Miejskie Centrum Opieki","mode":"bus","text":"153 163 513","n":3,"tip":1},"geometry":{"type":"Point","coordinates":[19.997611,50.015518]}},{"type":"Feature","properties":{"name":"Nowy Bieżanów Południe","mode":"bus","text":"173 234 244 274 284 503","n":6,"tip":0},"geometry":{"type":"Point","coordinates":[20.005851,50.019043]}},{"type":"Feature","properties":{"name":"Zajezdnia Płaszów","mode":"bus","text":"128 148","n":2,"tip":0},"geometry":{"type":"Point","coordinates":[20.011344,50.034907]}},{"type":"Feature","properties":{"name":"Podwierzbie","mode":"bus","text":"158","n":1,"tip":1},"geometry":{"type":"Point","coordinates":[20.033315,50.050771]}},{"type":"Feature","properties":{"name":"Nowy Bieżanów P+R","mode":"bus","text":"669","n":1,"tip":0},"geometry":{"type":"Point","coordinates":[20.011344,50.022568]}},{"type":"Feature","properties":{"name":"Nowy Bieżanów P+R","mode":"tram","text":"3 9 13 49 69","n":5,"tip":0},"geometry":{"type":"Point","coordinates":[20.011344,50.022568]}},{"type":"Feature","properties":{"name":"Mały Płaszów P+R","mode":"bus","text":"123 195 221 264","n":4,"tip":0},"geometry":{"type":"Point","coordinates":[20.005851,50.038432]}},{"type":"Feature","properties":{"name":"Mały Płaszów P+R","mode":"tram","text":"11 20 76","n":3,"tip":0},"geometry":{"type":"Point","coordinates":[20.005851,50.038432]}},{"type":"Feature","properties":{"name":"Bieżanów Potrzask","mode":"bus","text":"153","n":1,"tip":0},"geometry":{"type":"Point","coordinates":[20.025076,50.020806]}},{"type":"Feature","properties":{"name":"Podgórki Tynieckie","mode":"bus","text":"116 162","n":2,"tip":0},"geometry":{"type":"Point","coordinates":[19.871275,50.015518]}},{"type":"Feature","properties":{"name":"Złocień","mode":"bus","text":"125 605","n":2,"tip":0},"geometry":{"type":"Point","coordinates":[20.027822,50.029619]}},{"type":"Feature","properties":{"name":"Dworzec Główny Zachód","mode":"bus","text":"105 130 132 179 304 405","n":6,"tip":0},"geometry":{"type":"Point","coordinates":[19.945429,50.073686]}},{"type":"Feature","properties":{"name":"Radzikowskiego Osiedle","mode":"bus","text":"140","n":1,"tip":0},"geometry":{"type":"Point","coordinates":[19.895993,50.086024]}},{"type":"Feature","properties":{"name":"Centrum JP II","mode":"bus","text":"224","n":1,"tip":1},"geometry":{"type":"Point","coordinates":[19.93719,50.01023]}},{"type":"Feature","properties":{"name":"Teatr Słowackiego","mode":"bus","text":"605 704","n":2,"tip":0},"geometry":{"type":"Point","coordinates":[19.942682,50.068398]}},{"type":"Feature","properties":{"name":"TAURON Arena Kraków Wieczysta","mode":"bus","text":"124","n":1,"tip":0},"geometry":{"type":"Point","coordinates":[19.992119,50.075448]}},{"type":"Feature","properties":{"name":"TAURON Arena Kraków Wieczysta","mode":"tram","text":"49","n":1,"tip":0},"geometry":{"type":"Point","coordinates":[19.992119,50.075448]}},{"type":"Feature","properties":{"name":"Nowy Kleparz","mode":"bus","text":"120 140 189 301 337 420 502","n":7,"tip":0},"geometry":{"type":"Point","coordinates":[19.934443,50.082499]}},{"type":"Feature","properties":{"name":"Prądnik Czerwony P+R","mode":"bus","text":"199 250 260 270 405 610","n":6,"tip":0},"geometry":{"type":"Point","coordinates":[19.97564,50.094838]}},{"type":"Feature","properties":{"name":"Cmentarz Rakowicki","mode":"tram","text":"76","n":1,"tip":0},"geometry":{"type":"Point","coordinates":[19.964654,50.078974]}},{"type":"Feature","properties":{"name":"Ugorek","mode":"bus","text":"424","n":1,"tip":0},"geometry":{"type":"Point","coordinates":[19.992119,50.080736]}},{"type":"Feature","properties":{"name":"Szpital Rydygiera","mode":"bus","text":"163","n":1,"tip":1},"geometry":{"type":"Point","coordinates":[20.011344,50.086024]}},{"type":"Feature","properties":{"name":"Rżąka","mode":"bus","text":"144 195","n":2,"tip":0},"geometry":{"type":"Point","coordinates":[20.000358,50.015518]}},{"type":"Feature","properties":{"name":"Bagry","mode":"bus","text":"127","n":1,"tip":1},"geometry":{"type":"Point","coordinates":[20.003104,50.031382]}},{"type":"Feature","properties":{"name":"Cracovia Stadion","mode":"bus","text":"134 307","n":2,"tip":0},"geometry":{"type":"Point","coordinates":[19.917964,50.059584]}},{"type":"Feature","properties":{"name":"Bodzów","mode":"bus","text":"176","n":1,"tip":1},"geometry":{"type":"Point","coordinates":[19.874021,50.040195]}},{"type":"Feature","properties":{"name":"Grębałów","mode":"bus","text":"180","n":1,"tip":0},"geometry":{"type":"Point","coordinates":[20.036062,50.086024]}},{"type":"Feature","properties":{"name":"Prądnik Biały Zachód","mode":"bus","text":"513","n":1,"tip":0},"geometry":{"type":"Point","coordinates":[19.923457,50.100126]}},{"type":"Feature","properties":{"name":"Galicyjska","mode":"bus","text":"113","n":1,"tip":0},"geometry":{"type":"Point","coordinates":[20.008597,50.057822]}},{"type":"Feature","properties":{"name":"Skawina","mode":"bus","text":"203 223 243 245 283 293 903","n":7,"tip":0},"geometry":{"type":"Point","coordinates":[19.871275,49.997891]}},{"type":"Feature","properties":{"name":"Iwanowice Dworskie Pętla","mode":"bus","text":"277","n":1,"tip":0},"geometry":{"type":"Point","coordinates":[19.961908,50.138904]}},{"type":"Feature","properties":{"name":"Jeziorzany Pętla","mode":"bus","text":"219 239 279","n":3,"tip":0},"geometry":{"type":"Point","coordinates":[19.846557,50.015518]}},{"type":"Feature","properties":{"name":"Czernichów Rynek","mode":"bus","text":"249 259","n":2,"tip":0},"geometry":{"type":"Point","coordinates":[19.813599,50.020806]}},{"type":"Feature","properties":{"name":"Kaszów Remiza","mode":"bus","text":"269","n":1,"tip":0},"geometry":{"type":"Point","coordinates":[19.824585,50.045483]}},{"type":"Feature","properties":{"name":"Czułów Szkoła","mode":"bus","text":"269","n":1,"tip":0},"geometry":{"type":"Point","coordinates":[19.813599,50.057822]}},{"type":"Feature","properties":{"name":"Kraków Airport","mode":"bus","text":"300 902","n":2,"tip":0},"geometry":{"type":"Point","coordinates":[19.841064,50.066635]}},{"type":"Feature","properties":{"name":"Morawica Centrum","mode":"bus","text":"209","n":1,"tip":0},"geometry":{"type":"Point","coordinates":[19.832825,50.06311]}},{"type":"Feature","properties":{"name":"Chrosna Pętla","mode":"bus","text":"228","n":1,"tip":1},"geometry":{"type":"Point","coordinates":[19.819092,50.07016]}},{"type":"Feature","properties":{"name":"Zelków Pętla","mode":"bus","text":"248 948","n":2,"tip":1},"geometry":{"type":"Point","coordinates":[19.865782,50.112464]}},{"type":"Feature","properties":{"name":"Owczary Pętla","mode":"bus","text":"280 337 937","n":3,"tip":0},"geometry":{"type":"Point","coordinates":[19.926204,50.128328]}},{"type":"Feature","properties":{"name":"Trojanowice Pętla","mode":"bus","text":"207","n":1,"tip":1},"geometry":{"type":"Point","coordinates":[19.923457,50.11599]}},{"type":"Feature","properties":{"name":"Górna Wieś Pętla","mode":"bus","text":"227 917","n":2,"tip":0},"geometry":{"type":"Point","coordinates":[19.939936,50.124803]}},{"type":"Feature","properties":{"name":"Narama Remiza","mode":"bus","text":"257","n":1,"tip":1},"geometry":{"type":"Point","coordinates":[19.93719,50.128328]}},{"type":"Feature","properties":{"name":"Młynka Pętla","mode":"bus","text":"238","n":1,"tip":1},"geometry":{"type":"Point","coordinates":[19.813599,50.084262]}},{"type":"Feature","properties":{"name":"Pielgrzymowice Pętla","mode":"bus","text":"260 270","n":2,"tip":0},"geometry":{"type":"Point","coordinates":[20.011344,50.110702]}},{"type":"Feature","properties":{"name":"Zastów Pętla","mode":"bus","text":"250 270","n":2,"tip":0},"geometry":{"type":"Point","coordinates":[20.01409,50.100126]}},{"type":"Feature","properties":{"name":"Zabierzów Młyn","mode":"bus","text":"218 288","n":2,"tip":0},"geometry":{"type":"Point","coordinates":[19.857543,50.0966]}},{"type":"Feature","properties":{"name":"Czulice Kościół","mode":"bus","text":"212 271","n":2,"tip":0},"geometry":{"type":"Point","coordinates":[20.069019,50.093075]}},{"type":"Feature","properties":{"name":"Łososkowice Remiza","mode":"bus","text":"202","n":1,"tip":1},"geometry":{"type":"Point","coordinates":[20.049794,50.117752]}},{"type":"Feature","properties":{"name":"Nielepice Pętla","mode":"bus","text":"258 298","n":2,"tip":1},"geometry":{"type":"Point","coordinates":[19.819092,50.080736]}},{"type":"Feature","properties":{"name":"Brzegi Pętla","mode":"bus","text":"B2 G4","n":2,"tip":0},"geometry":{"type":"Point","coordinates":[20.044301,50.040195]}},{"type":"Feature","properties":{"name":"Świątniki Górne Urząd Miasta i Gminy","mode":"bus","text":"225 915","n":2,"tip":0},"geometry":{"type":"Point","coordinates":[19.945429,49.982027]}},{"type":"Feature","properties":{"name":"Konary Pętla","mode":"bus","text":"265","n":1,"tip":1},"geometry":{"type":"Point","coordinates":[19.92895,49.987315]}},{"type":"Feature","properties":{"name":"Rzeszotary Panciawa Pętla","mode":"bus","text":"215","n":1,"tip":0},"geometry":{"type":"Point","coordinates":[19.978386,49.982027]}},{"type":"Feature","properties":{"name":"Włosań Centrum","mode":"bus","text":"275","n":1,"tip":1},"geometry":{"type":"Point","coordinates":[19.920711,49.974976]}},{"type":"Feature","properties":{"name":"Ujazd Pętla","mode":"bus","text":"230","n":1,"tip":0},"geometry":{"type":"Point","coordinates":[19.871275,50.105414]}},{"type":"Feature","properties":{"name":"Karniowice Pętla","mode":"bus","text":"268","n":1,"tip":1},"geometry":{"type":"Point","coordinates":[19.85205,50.110702]}},{"type":"Feature","properties":{"name":"Buków Pętla","mode":"bus","text":"245","n":1,"tip":0},"geometry":{"type":"Point","coordinates":[19.876768,49.992603]}},{"type":"Feature","properties":{"name":"Ochojno Remiza","mode":"bus","text":"285","n":1,"tip":1},"geometry":{"type":"Point","coordinates":[19.964654,49.989078]}},{"type":"Feature","properties":{"name":"Wieliczka Cmentarz","mode":"bus","text":"904","n":1,"tip":0},"geometry":{"type":"Point","coordinates":[20.025076,50.013755]}},{"type":"Feature","properties":{"name":"Wieliczka Kampus","mode":"bus","text":"204 224 244 304","n":4,"tip":0},"geometry":{"type":"Point","coordinates":[20.033315,50.013755]}},{"type":"Feature","properties":{"name":"Wołowice Kapliczka","mode":"bus","text":"239 279","n":2,"tip":0},"geometry":{"type":"Point","coordinates":[19.827332,50.01728]}},{"type":"Feature","properties":{"name":"Skawina Podgórki","mode":"bus","text":"203","n":1,"tip":0},"geometry":{"type":"Point","coordinates":[19.863035,50.01728]}},{"type":"Feature","properties":{"name":"Będkowice Pętla","mode":"bus","text":"310 910","n":2,"tip":1},"geometry":{"type":"Point","coordinates":[19.854796,50.117752]}},{"type":"Feature","properties":{"name":"Rudawa Rynek","mode":"bus","text":"918","n":1,"tip":0},"geometry":{"type":"Point","coordinates":[19.824585,50.091312]}},{"type":"Feature","properties":{"name":"Radwanowice Pętla","mode":"bus","text":"278","n":1,"tip":1},"geometry":{"type":"Point","coordinates":[19.824585,50.101888]}},{"type":"Feature","properties":{"name":"Biały Kościół Murownia Pętla","mode":"bus","text":"310","n":1,"tip":1},"geometry":{"type":"Point","coordinates":[19.871275,50.12304]}},{"type":"Feature","properties":{"name":"Węgrzce Pętla","mode":"bus","text":"217","n":1,"tip":1},"geometry":{"type":"Point","coordinates":[19.970147,50.107176]}},{"type":"Feature","properties":{"name":"Grabówki Pętla","mode":"bus","text":"214","n":1,"tip":0},"geometry":{"type":"Point","coordinates":[19.983879,49.996128]}},{"type":"Feature","properties":{"name":"Skawina Sąsiedzka Pętla","mode":"bus","text":"235","n":1,"tip":1},"geometry":{"type":"Point","coordinates":[19.85205,50.003179]}},{"type":"Feature","properties":{"name":"Brzeźnica Dworzec","mode":"bus","text":"223","n":1,"tip":1},"geometry":{"type":"Point","coordinates":[19.80536,50.015518]}},{"type":"Feature","properties":{"name":"Ochodza Dwór","mode":"bus","text":"235","n":1,"tip":0},"geometry":{"type":"Point","coordinates":[19.838317,50.008467]}},{"type":"Feature","properties":{"name":"Wola Radziszowska Pętla","mode":"bus","text":"253","n":1,"tip":1},"geometry":{"type":"Point","coordinates":[19.860289,49.980264]}},{"type":"Feature","properties":{"name":"Skawina SCK","mode":"bus","text":"233","n":1,"tip":1},"geometry":{"type":"Point","coordinates":[19.863035,50.006704]}},{"type":"Feature","properties":{"name":"Ochodza Odwiśle","mode":"bus","text":"235","n":1,"tip":1},"geometry":{"type":"Point","coordinates":[19.838317,50.013755]}},{"type":"Feature","properties":{"name":"Węgrzce Wielkie Pętla","mode":"bus","text":"234 W2 Z1","n":3,"tip":0},"geometry":{"type":"Point","coordinates":[20.05254,50.027856]}},{"type":"Feature","properties":{"name":"Giebułtów Morgi","mode":"bus","text":"220","n":1,"tip":1},"geometry":{"type":"Point","coordinates":[19.895993,50.117752]}},{"type":"Feature","properties":{"name":"Kamień Szkoła","mode":"bus","text":"229","n":1,"tip":1},"geometry":{"type":"Point","coordinates":[19.788881,50.03667]}},{"type":"Feature","properties":{"name":"Dąbrowa Szlachecka Krzemiennik","mode":"bus","text":"279","n":1,"tip":0},"geometry":{"type":"Point","coordinates":[19.830078,50.024331]}},{"type":"Feature","properties":{"name":"Krzysztoforzyce Pętla","mode":"bus","text":"242","n":1,"tip":1},"geometry":{"type":"Point","coordinates":[20.055287,50.08955]}},{"type":"Feature","properties":{"name":"Kocmyrzów-Luborzyca Urząd Gminy","mode":"bus","text":"272","n":1,"tip":0},"geometry":{"type":"Point","coordinates":[20.041555,50.100126]}},{"type":"Feature","properties":{"name":"Mników Skały","mode":"bus","text":"209","n":1,"tip":1},"geometry":{"type":"Point","coordinates":[19.813599,50.06311]}},{"type":"Feature","properties":{"name":"Rybna Dolna","mode":"bus","text":"269","n":1,"tip":0},"geometry":{"type":"Point","coordinates":[19.794374,50.047246]}},{"type":"Feature","properties":{"name":"Czułówek Kapliczka","mode":"bus","text":"269","n":1,"tip":1},"geometry":{"type":"Point","coordinates":[19.810853,50.050771]}},{"type":"Feature","properties":{"name":"Niepołomice Dworzec","mode":"bus","text":"221 301","n":2,"tip":0},"geometry":{"type":"Point","coordinates":[20.082751,50.047246]}},{"type":"Feature","properties":{"name":"Chobot Leśniczówka","mode":"bus","text":"211","n":1,"tip":1},"geometry":{"type":"Point","coordinates":[20.112962,50.064872]}},{"type":"Feature","properties":{"name":"Grabie Kościół","mode":"bus","text":"264","n":1,"tip":0},"geometry":{"type":"Point","coordinates":[20.066273,50.045483]}},{"type":"Feature","properties":{"name":"Słomniki Osiedle","mode":"bus","text":"222","n":1,"tip":1},"geometry":{"type":"Point","coordinates":[20.011344,50.14243]}},{"type":"Feature","properties":{"name":"Zielonki Marszowiec Pętla","mode":"bus","text":"247 317","n":2,"tip":0},"geometry":{"type":"Point","coordinates":[19.942682,50.108939]}},{"type":"Feature","properties":{"name":"Dziekanowice Kapliczka","mode":"bus","text":"297","n":1,"tip":1},"geometry":{"type":"Point","coordinates":[19.992119,50.103651]}},{"type":"Feature","properties":{"name":"Wieliczka Centrum Dw.","mode":"bus","text":"284 B2 D2 G3 G4 J1 L1 P2 R2 W2 Z1","n":11,"tip":0},"geometry":{"type":"Point","coordinates":[20.016837,50.01023]}},{"type":"Feature","properties":{"name":"Lednica Górna Świdówka","mode":"bus","text":"L1","n":1,"tip":0},"geometry":{"type":"Point","coordinates":[20.036062,50.004942]}},{"type":"Feature","properties":{"name":"Trąbki P+R","mode":"bus","text":"274","n":1,"tip":1},"geometry":{"type":"Point","coordinates":[20.049794,50.001416]}},{"type":"Feature","properties":{"name":"Pękowice Ojcowska","mode":"bus","text":"240 290","n":2,"tip":1},"geometry":{"type":"Point","coordinates":[19.909725,50.108939]}},{"type":"Feature","properties":{"name":"Ojców Zamek","mode":"bus","text":"LR0","n":1,"tip":1},"geometry":{"type":"Point","coordinates":[19.885007,50.133616]}},{"type":"Feature","properties":{"name":"Podstolice Centrum","mode":"bus","text":"214 P2","n":2,"tip":1},"geometry":{"type":"Point","coordinates":[19.981133,49.989078]}},{"type":"Feature","properties":{"name":"Michałowice P+R","mode":"bus","text":"307","n":1,"tip":1},"geometry":{"type":"Point","coordinates":[19.961908,50.121278]}},{"type":"Feature","properties":{"name":"Rawałowice Kapliczka","mode":"bus","text":"262","n":1,"tip":1},"geometry":{"type":"Point","coordinates":[20.05254,50.108939]}},{"type":"Feature","properties":{"name":"Skała Rynek","mode":"bus","text":"267","n":1,"tip":1},"geometry":{"type":"Point","coordinates":[19.898739,50.140667]}},{"type":"Feature","properties":{"name":"Przeginia Kościół","mode":"bus","text":"200","n":1,"tip":1},"geometry":{"type":"Point","coordinates":[19.838317,50.131854]}},{"type":"Feature","properties":{"name":"Mogilany Pętla","mode":"bus","text":"255","n":1,"tip":0},"geometry":{"type":"Point","coordinates":[19.898739,49.987315]}},{"type":"Feature","properties":{"name":"Wilków Pętla","mode":"bus","text":"232","n":1,"tip":1},"geometry":{"type":"Point","coordinates":[20.030569,50.119515]}},{"type":"Feature","properties":{"name":"Modlniczka Centrum Logistyczne","mode":"bus","text":"210","n":1,"tip":1},"geometry":{"type":"Point","coordinates":[19.874021,50.0966]}},{"type":"Feature","properties":{"name":"Dworzec Towarowy","mode":"tram","text":"14 20","n":2,"tip":0},"geometry":{"type":"Point","coordinates":[19.93719,50.084262]}},{"type":"Feature","properties":{"name":"Bardosa","mode":"tram","text":"16","n":1,"tip":0},"geometry":{"type":"Point","coordinates":[20.036062,50.064872]}},{"type":"Feature","properties":{"name":"Kopiec Wandy","mode":"tram","text":"21 22 75","n":3,"tip":0},"geometry":{"type":"Point","coordinates":[20.038808,50.066635]}},{"type":"Feature","properties":{"name":"Dobranowice Szkoła","mode":"bus","text":"D2","n":1,"tip":1},"geometry":{"type":"Point","coordinates":[20.036062,49.996128]}},{"type":"Feature","properties":{"name":"Dobranowice Szkoła","mode":"bus","text":"D2","n":1,"tip":1},"geometry":{"type":"Point","coordinates":[20.036062,49.992603]}},{"type":"Feature","properties":{"name":"Jankówka Skrzyżowanie","mode":"bus","text":"R2","n":1,"tip":1},"geometry":{"type":"Point","coordinates":[20.005851,49.98379]}},{"type":"Feature","properties":{"name":"Jankówka Skrzyżowanie","mode":"bus","text":"R2","n":1,"tip":1},"geometry":{"type":"Point","coordinates":[20.008597,49.982027]}},{"type":"Feature","properties":{"name":"Janowice Szkoła","mode":"bus","text":"J1","n":1,"tip":1},"geometry":{"type":"Point","coordinates":[19.992119,49.989078]}},{"type":"Feature","properties":{"name":"Janowice Szkoła","mode":"bus","text":"J1","n":1,"tip":1},"geometry":{"type":"Point","coordinates":[19.989372,49.992603]}}]}