{"type":"FeatureCollection","features":[{"type":"Feature","properties":{"id":"c5","lines":"18 50 69 75","n":4,"bus":1},"geometry":{"type":"LineString","coordinates":[[19.931697,50.093075],[19.92895,50.094838],[19.92895,50.0966]]}},{"type":"Feature","properties":{"id":"c6","lines":"3 5 18 50 69 75","n":6,"bus":1},"geometry":{"type":"LineString","coordinates":[[19.931697,50.093075],[19.931697,50.08955]]}},{"type":"Feature","properties":{"id":"c27","lines":"8 77","n":2,"bus":0},"geometry":{"type":"LineString","coordinates":[[19.893246,50.06311],[19.895993,50.061347],[19.920711,50.061347]]}},{"type":"Feature","properties":{"id":"c67","lines":"11 18 52 62 77","n":5,"bus":1},"geometry":{"type":"LineString","coordinates":[[19.895993,50.022568],[19.898739,50.024331],[19.915218,50.024331]]}},{"type":"Feature","properties":{"id":"c70","lines":"21 52","n":2,"bus":1},"geometry":{"type":"LineString","coordinates":[[20.000358,50.094838],[20.005851,50.091312]]}},{"type":"Feature","properties":{"id":"c98","lines":"3 69","n":2,"bus":1},"geometry":{"type":"LineString","coordinates":[[19.942682,50.078974],[19.945429,50.077211],[19.945429,50.073686]]}},{"type":"Feature","properties":{"id":"c100","lines":"5 14 50","n":3,"bus":1},"geometry":{"type":"LineString","coordinates":[[19.942682,50.078974],[19.950922,50.073686]]}},{"type":"Feature","properties":{"id":"c103","lines":"3 5 14 50 69","n":5,"bus":0},"geometry":{"type":"LineString","coordinates":[[19.942682,50.078974],[19.93719,50.082499],[19.93719,50.084262]]}},{"type":"Feature","properties":{"id":"c104","lines":"3 69","n":2,"bus":1},"geometry":{"type":"LineString","coordinates":[[19.945429,50.073686],[19.942682,50.071923],[19.942682,50.068398]]}},{"type":"Feature","properties":{"id":"c126","lines":"11 50 74","n":3,"bus":1},"geometry":{"type":"LineString","coordinates":[[19.964654,50.013755],[19.953668,50.013755]]}},{"type":"Feature","properties":{"id":"c127","lines":"11 50 74","n":3,"bus":1},"geometry":{"type":"LineString","coordinates":[[19.964654,50.013755],[19.972893,50.013755],[19.97564,50.015518]]}},{"type":"Feature","properties":{"id":"c129","lines":"10 21","n":2,"bus":0},"geometry":{"type":"LineString","coordinates":[[20.055287,50.06311],[20.05254,50.061347],[20.041555,50.061347]]}},{"type":"Feature","properties":{"id":"c153","lines":"18 22 52 62","n":4,"bus":1},"geometry":{"type":"LineString","coordinates":[[19.917964,50.04372],[19.920711,50.045483],[19.926204,50.045483]]}},{"type":"Feature","properties":{"id":"c154","lines":"18 22 52 62","n":4,"bus":1},"geometry":{"type":"LineString","coordinates":[[19.917964,50.04372],[19.912472,50.040195]]}},{"type":"Feature","properties":{"id":"c161","lines":"18 22 52 62","n":4,"bus":0},"geometry":{"type":"LineString","coordinates":[[19.926204,50.045483],[19.931697,50.045483],[19.939936,50.050771]]}},{"type":"Feature","properties":{"id":"c172","lines":"1 14 22 62","n":4,"bus":1},"geometry":{"type":"LineString","coordinates":[[20.011344,50.07016],[20.011344,50.075448]]}},{"type":"Feature","properties":{"id":"c173","lines":"1 14 22 62","n":4,"bus":1},"geometry":{"type":"LineString","coordinates":[[20.011344,50.07016],[20.005851,50.07016]]}},{"type":"Feature","properties":{"id":"c175","lines":"10 22 62 74 75","n":5,"bus":1},"geometry":{"type":"LineString","coordinates":[[20.011344,50.075448],[20.022329,50.068398]]}},{"type":"Feature","properties":{"id":"c177","lines":"1 5 9 14 52","n":5,"bus":1},"geometry":{"type":"LineString","coordinates":[[20.011344,50.075448],[20.01409,50.077211]]}},{"type":"Feature","properties":{"id":"c178","lines":"5 9 10 52 74 75","n":6,"bus":1},"geometry":{"type":"LineString","coordinates":[[20.011344,50.075448],[20.005851,50.075448]]}},{"type":"Feature","properties":{"id":"c190","lines":"3 5 18 50 69 75","n":6,"bus":1},"geometry":{"type":"LineString","coordinates":[[19.934443,50.087787],[19.931697,50.08955]]}},{"type":"Feature","properties":{"id":"c191","lines":"3 5 18 50 69 75","n":6,"bus":0},"geometry":{"type":"LineString","coordinates":[[19.934443,50.087787],[19.93719,50.086024],[19.93719,50.084262]]}},{"type":"Feature","properties":{"id":"c195","lines":"18 20 75","n":3,"bus":1},"geometry":{"type":"LineString","coordinates":[[19.934443,50.082499],[19.934443,50.071923]]}},{"type":"Feature","properties":{"id":"c196","lines":"18 20 75","n":3,"bus":0},"geometry":{"type":"LineString","coordinates":[[19.934443,50.082499],[19.93719,50.084262]]}},{"type":"Feature","properties":{"id":"c234","lines":"8 22 50","n":3,"bus":0},"geometry":{"type":"LineString","coordinates":[[19.926204,50.011992],[19.926204,50.015518]]}},{"type":"Feature","properties":{"id":"c240","lines":"1 5 74","n":3,"bus":1},"geometry":{"type":"LineString","coordinates":[[20.030569,50.084262],[20.030569,50.082499]]}},{"type":"Feature","properties":{"id":"c247","lines":"1 5 74","n":3,"bus":0},"geometry":{"type":"LineString","coordinates":[[20.030569,50.082499],[20.027822,50.080736]]}},{"type":"Feature","properties":{"id":"c258","lines":"1 5","n":2,"bus":1},"geometry":{"type":"LineString","coordinates":[[20.022329,50.080736],[20.019583,50.080736],[20.016837,50.078974]]}},{"type":"Feature","properties":{"id":"c259","lines":"1 5","n":2,"bus":1},"geometry":{"type":"LineString","coordinates":[[20.022329,50.080736],[20.027822,50.080736]]}},{"type":"Feature","properties":{"id":"c261","lines":"1 5","n":2,"bus":1},"geometry":{"type":"LineString","coordinates":[[20.016837,50.078974],[20.01409,50.077211]]}},{"type":"Feature","properties":{"id":"c265","lines":"16 21","n":2,"bus":1},"geometry":{"type":"LineString","coordinates":[[20.01409,50.077211],[20.019583,50.073686]]}},{"type":"Feature","properties":{"id":"c266","lines":"9 14 16 21 52","n":5,"bus":1},"geometry":{"type":"LineString","coordinates":[[20.01409,50.077211],[20.011344,50.078974],[20.011344,50.080736]]}},{"type":"Feature","properties":{"id":"c268","lines":"16 21","n":2,"bus":1},"geometry":{"type":"LineString","coordinates":[[20.019583,50.073686],[20.019583,50.07016],[20.022329,50.068398]]}},{"type":"Feature","properties":{"id":"c272","lines":"14 16","n":2,"bus":1},"geometry":{"type":"LineString","coordinates":[[19.992119,50.091312],[19.994865,50.08955]]}},{"type":"Feature","properties":{"id":"c275","lines":"14 16","n":2,"bus":1},"geometry":{"type":"LineString","coordinates":[[19.994865,50.08955],[19.997611,50.08955]]}},{"type":"Feature","properties":{"id":"c289","lines":"14 16 21 52","n":4,"bus":1},"geometry":{"type":"LineString","coordinates":[[20.005851,50.086024],[20.011344,50.082499]]}},{"type":"Feature","properties":{"id":"c290","lines":"14 16","n":2,"bus":1},"geometry":{"type":"LineString","coordinates":[[20.005851,50.086024],[20.003104,50.087787],[20.003104,50.08955]]}},{"type":"Feature","properties":{"id":"c291","lines":"21 52","n":2,"bus":1},"geometry":{"type":"LineString","coordinates":[[20.005851,50.086024],[20.005851,50.091312]]}},{"type":"Feature","properties":{"id":"c293","lines":"9 14 16 21 52","n":5,"bus":1},"geometry":{"type":"LineString","coordinates":[[20.011344,50.082499],[20.011344,50.080736]]}},{"type":"Feature","properties":{"id":"c301","lines":"21 22 74 75","n":4,"bus":1},"geometry":{"type":"LineString","coordinates":[[20.027822,50.07016],[20.025076,50.068398],[20.022329,50.068398]]}},{"type":"Feature","properties":{"id":"c302","lines":"21 22 74 75","n":4,"bus":1},"geometry":{"type":"LineString","coordinates":[[20.027822,50.07016],[20.030569,50.07016]]}},{"type":"Feature","properties":{"id":"c307","lines":"10 16","n":2,"bus":1},"geometry":{"type":"LineString","coordinates":[[20.030569,50.064872],[20.027822,50.064872]]}},{"type":"Feature","properties":{"id":"c309","lines":"10 16","n":2,"bus":1},"geometry":{"type":"LineString","coordinates":[[20.030569,50.064872],[20.036062,50.064872]]}},{"type":"Feature","properties":{"id":"c311","lines":"10 16","n":2,"bus":1},"geometry":{"type":"LineString","coordinates":[[20.027822,50.064872],[20.022329,50.068398]]}},{"type":"Feature","properties":{"id":"c326","lines":"11 20 76","n":3,"bus":1},"geometry":{"type":"LineString","coordinates":[[20.005851,50.038432],[20.000358,50.038432]]}},{"type":"Feature","properties":{"id":"c329","lines":"14 16","n":2,"bus":1},"geometry":{"type":"LineString","coordinates":[[19.997611,50.08955],[20.003104,50.08955]]}},{"type":"Feature","properties":{"id":"c341","lines":"76","n":1,"bus":0},"geometry":{"type":"LineString","coordinates":[[19.964654,50.078974],[19.956415,50.073686]]}},{"type":"Feature","properties":{"id":"c342","lines":"1 10 20 22 52 62 74 75","n":8,"bus":1},"geometry":{"type":"LineString","coordinates":[[19.964654,50.07016],[19.953668,50.07016]]}},{"type":"Feature","properties":{"id":"c344","lines":"5 9 10 49 52 74 75","n":7,"bus":1},"geometry":{"type":"LineString","coordinates":[[19.964654,50.07016],[19.978386,50.07016]]}},{"type":"Feature","properties":{"id":"c349","lines":"1 9 14 20 22 49 50 62","n":8,"bus":1},"geometry":{"type":"LineString","coordinates":[[19.964654,50.07016],[19.964654,50.057822]]}},{"type":"Feature","properties":{"id":"c350","lines":"5 14 50","n":3,"bus":0},"geometry":{"type":"LineString","coordinates":[[19.964654,50.07016],[19.959161,50.073686],[19.950922,50.073686]]}},{"type":"Feature","properties":{"id":"c351","lines":"1 10 20 22 52 62 74 75 76","n":9,"bus":1},"geometry":{"type":"LineString","coordinates":[[19.953668,50.07016],[19.950922,50.068398],[19.942682,50.068398]]}},{"type":"Feature","properties":{"id":"c352","lines":"76","n":1,"bus":1},"geometry":{"type":"LineString","coordinates":[[19.953668,50.07016],[19.956415,50.071923],[19.956415,50.073686]]}},{"type":"Feature","properties":{"id":"c354","lines":"18 20 75","n":3,"bus":1},"geometry":{"type":"LineString","coordinates":[[19.942682,50.068398],[19.93719,50.071923],[19.934443,50.071923]]}},{"type":"Feature","properties":{"id":"c355","lines":"1 3 10 18 22 52 62 69 74 76","n":10,"bus":1},"geometry":{"type":"LineString","coordinates":[[19.942682,50.068398],[19.942682,50.06311]]}},{"type":"Feature","properties":{"id":"c370","lines":"8 77","n":2,"bus":0},"geometry":{"type":"LineString","coordinates":[[19.920711,50.061347],[19.92895,50.061347]]}},{"type":"Feature","properties":{"id":"c372","lines":"1 13","n":2,"bus":1},"geometry":{"type":"LineString","coordinates":[[19.920711,50.056059],[19.909725,50.056059],[19.904232,50.052534]]}},{"type":"Feature","properties":{"id":"c373","lines":"1 13","n":2,"bus":1},"geometry":{"type":"LineString","coordinates":[[19.920711,50.056059],[19.92895,50.061347]]}},{"type":"Feature","properties":{"id":"c377","lines":"5 9 10 49 52 74 75","n":7,"bus":1},"geometry":{"type":"LineString","coordinates":[[19.992119,50.075448],[19.983879,50.07016],[19.978386,50.07016]]}},{"type":"Feature","properties":{"id":"c378","lines":"5 9 10 52 74 75","n":6,"bus":0},"geometry":{"type":"LineString","coordinates":[[19.992119,50.075448],[20.000358,50.075448]]}},{"type":"Feature","properties":{"id":"c385","lines":"11 20 76","n":3,"bus":1},"geometry":{"type":"LineString","coordinates":[[20.000358,50.038432],[19.997611,50.03667],[19.992119,50.03667]]}},{"type":"Feature","properties":{"id":"c391","lines":"9 20 49 50","n":4,"bus":1},"geometry":{"type":"LineString","coordinates":[[19.992119,50.03667],[19.983879,50.041958]]}},{"type":"Feature","properties":{"id":"c392","lines":"9 11 49 50 76","n":5,"bus":0},"geometry":{"type":"LineString","coordinates":[[19.992119,50.03667],[19.983879,50.031382],[19.983879,50.029619]]}},{"type":"Feature","properties":{"id":"c400","lines":"1 14 22 62","n":4,"bus":1},"geometry":{"type":"LineString","coordinates":[[19.989372,50.061347],[19.986626,50.06311],[19.978386,50.06311]]}},{"type":"Feature","properties":{"id":"c401","lines":"1 14 22 62","n":4,"bus":1},"geometry":{"type":"LineString","coordinates":[[19.989372,50.061347],[19.997611,50.066635]]}},{"type":"Feature","properties":{"id":"c404","lines":"1 14 22 62","n":4,"bus":0},"geometry":{"type":"LineString","coordinates":[[19.978386,50.06311],[19.97564,50.06311],[19.972893,50.061347]]}},{"type":"Feature","properties":{"id":"c406","lines":"18 22 52 62","n":4,"bus":1},"geometry":{"type":"LineString","coordinates":[[19.912472,50.040195],[19.917964,50.03667],[19.917964,50.029619]]}},{"type":"Feature","properties":{"id":"c417","lines":"3 13 69 74 76","n":5,"bus":1},"geometry":{"type":"LineString","coordinates":[[19.967401,50.03667],[19.97564,50.031382],[19.97564,50.029619]]}},{"type":"Feature","properties":{"id":"c418","lines":"3 69 74","n":3,"bus":1},"geometry":{"type":"LineString","coordinates":[[19.967401,50.03667],[19.959161,50.041958],[19.959161,50.04372]]}},{"type":"Feature","properties":{"id":"c419","lines":"13 76","n":2,"bus":0},"geometry":{"type":"LineString","coordinates":[[19.967401,50.03667],[19.948175,50.03667],[19.945429,50.038432]]}},{"type":"Feature","properties":{"id":"c422","lines":"9 20 49 50","n":4,"bus":1},"geometry":{"type":"LineString","coordinates":[[19.983879,50.041958],[19.97564,50.047246],[19.97564,50.049008]]}},{"type":"Feature","properties":{"id":"c425","lines":"1 14 22 62","n":4,"bus":1},"geometry":{"type":"LineString","coordinates":[[19.997611,50.066635],[20.003104,50.07016],[20.005851,50.07016]]}},{"type":"Feature","properties":{"id":"c441","lines":"18 50 69 75","n":4,"bus":1},"geometry":{"type":"LineString","coordinates":[[19.956415,50.100126],[19.961908,50.103651]]}},{"type":"Feature","properties":{"id":"c442","lines":"18 50 69 75","n":4,"bus":0},"geometry":{"type":"LineString","coordinates":[[19.956415,50.100126],[19.956415,50.098363]]}},{"type":"Feature","properties":{"id":"c450","lines":"74","n":1,"bus":1},"geometry":{"type":"LineString","coordinates":[[20.038808,50.071923],[20.036062,50.073686],[20.036062,50.075448]]}},{"type":"Feature","properties":{"id":"c451","lines":"21 22 74 75","n":4,"bus":1},"geometry":{"type":"LineString","coordinates":[[20.038808,50.071923],[20.036062,50.07016],[20.030569,50.07016]]}},{"type":"Feature","properties":{"id":"c453","lines":"21 22 75","n":3,"bus":0},"geometry":{"type":"LineString","coordinates":[[20.038808,50.071923],[20.038808,50.066635]]}},{"type":"Feature","properties":{"id":"c466","lines":"74","n":1,"bus":1},"geometry":{"type":"LineString","coordinates":[[20.036062,50.075448],[20.036062,50.077211]]}},{"type":"Feature","properties":{"id":"c468","lines":"74","n":1,"bus":0},"geometry":{"type":"LineString","coordinates":[[20.036062,50.077211],[20.033315,50.077211],[20.027822,50.080736]]}},{"type":"Feature","properties":{"id":"c489","lines":"3 9 13 49 69","n":5,"bus":1},"geometry":{"type":"LineString","coordinates":[[19.994865,50.019043],[19.997611,50.020806],[20.003104,50.020806]]}},{"type":"Feature","properties":{"id":"c491","lines":"3 9 13 49 69","n":5,"bus":0},"geometry":{"type":"LineString","coordinates":[[19.994865,50.019043],[19.986626,50.019043]]}},{"type":"Feature","properties":{"id":"c492","lines":"3 9 13 49 69","n":5,"bus":1},"geometry":{"type":"LineString","coordinates":[[19.986626,50.019043],[19.983879,50.020806]]}},{"type":"Feature","properties":{"id":"c494","lines":"11 50 74","n":3,"bus":1},"geometry":{"type":"LineString","coordinates":[[19.983879,50.020806],[19.97564,50.015518]]}},{"type":"Feature","properties":{"id":"c495","lines":"3 9 11 13 49 50 69 74","n":8,"bus":1},"geometry":{"type":"LineString","coordinates":[[19.983879,50.020806],[19.983879,50.024331]]}},{"type":"Feature","properties":{"id":"c500","lines":"8 10 77","n":3,"bus":1},"geometry":{"type":"LineString","coordinates":[[19.93719,50.031382],[19.934443,50.029619],[19.934443,50.024331]]}},{"type":"Feature","properties":{"id":"c501","lines":"8 10 77","n":3,"bus":1},"geometry":{"type":"LineString","coordinates":[[19.93719,50.031382],[19.945429,50.03667],[19.945429,50.038432]]}},{"type":"Feature","properties":{"id":"c504","lines":"18 50 69 75","n":4,"bus":1},"geometry":{"type":"LineString","coordinates":[[19.92895,50.0966],[19.948175,50.0966]]}},{"type":"Feature","properties":{"id":"c511","lines":"10","n":1,"bus":1},"geometry":{"type":"LineString","coordinates":[[20.036062,50.064872],[20.041555,50.061347]]}},{"type":"Feature","properties":{"id":"c512","lines":"21","n":1,"bus":0},"geometry":{"type":"LineString","coordinates":[[20.041555,50.061347],[20.038808,50.06311],[20.038808,50.066635]]}},{"type":"Feature","properties":{"id":"c519","lines":"8 22 50","n":3,"bus":1},"geometry":{"type":"LineString","coordinates":[[19.926204,50.015518],[19.931697,50.019043]]}},{"type":"Feature","properties":{"id":"c521","lines":"3 9 13 49 69","n":5,"bus":1},"geometry":{"type":"LineString","coordinates":[[20.003104,50.020806],[20.008597,50.020806]]}},{"type":"Feature","properties":{"id":"c523","lines":"3 9 13 49 69","n":5,"bus":1},"geometry":{"type":"LineString","coordinates":[[20.008597,50.020806],[20.011344,50.022568]]}},{"type":"Feature","properties":{"id":"c553","lines":"10 11 50","n":3,"bus":1},"geometry":{"type":"LineString","coordinates":[[19.953668,50.013755],[19.942682,50.013755]]}},{"type":"Feature","properties":{"id":"c578","lines":"18 50 69 75","n":4,"bus":0},"geometry":{"type":"LineString","coordinates":[[19.948175,50.0966],[19.953668,50.0966],[19.956415,50.098363]]}},{"type":"Feature","properties":{"id":"c595","lines":"5 9 10 52 74 75","n":6,"bus":1},"geometry":{"type":"LineString","coordinates":[[20.000358,50.075448],[20.005851,50.075448]]}},{"type":"Feature","properties":{"id":"c601","lines":"11 18 52 62 77","n":5,"bus":1},"geometry":{"type":"LineString","coordinates":[[19.915218,50.024331],[19.917964,50.024331]]}},{"type":"Feature","properties":{"id":"c602","lines":"18 52 62","n":3,"bus":1},"geometry":{"type":"LineString","coordinates":[[19.917964,50.024331],[19.917964,50.029619]]}},{"type":"Feature","properties":{"id":"c603","lines":"11 77","n":2,"bus":0},"geometry":{"type":"LineString","coordinates":[[19.917964,50.024331],[19.926204,50.024331]]}},{"type":"Feature","properties":{"id":"c604","lines":"22","n":1,"bus":0},"geometry":{"type":"LineString","coordinates":[[19.917964,50.029619],[19.926204,50.024331]]}},{"type":"Feature","properties":{"id":"c809","lines":"10 11 50","n":3,"bus":0},"geometry":{"type":"LineString","coordinates":[[19.942682,50.013755],[19.934443,50.019043],[19.931697,50.019043]]}},{"type":"Feature","properties":{"id":"c979","lines":"9 20 49 50","n":4,"bus":0},"geometry":{"type":"LineString","coordinates":[[19.97564,50.049008],[19.964654,50.056059],[19.964654,50.057822]]}},{"type":"Feature","properties":{"id":"c981","lines":"1 14 22 62","n":4,"bus":0},"geometry":{"type":"LineString","coordinates":[[19.964654,50.057822],[19.967401,50.057822],[19.972893,50.061347]]}},{"type":"Feature","properties":{"id":"c982","lines":"8 10 11 22","n":4,"bus":1},"geometry":{"type":"LineString","coordinates":[[19.934443,50.024331],[19.931697,50.022568],[19.931697,50.019043]]}},{"type":"Feature","properties":{"id":"c983","lines":"11 22 77","n":3,"bus":0},"geometry":{"type":"LineString","coordinates":[[19.934443,50.024331],[19.926204,50.024331]]}},{"type":"Feature","properties":{"id":"c984","lines":"8 10 11 22","n":4,"bus":0},"geometry":{"type":"LineString","coordinates":[[19.934443,50.024331],[19.934443,50.020806],[19.931697,50.019043]]}},{"type":"Feature","properties":{"id":"c985","lines":"22 52 62","n":3,"bus":1},"geometry":{"type":"LineString","coordinates":[[19.939936,50.050771],[19.948175,50.056059],[19.948175,50.057822]]}},{"type":"Feature","properties":{"id":"c986","lines":"8 10 13 76","n":4,"bus":1},"geometry":{"type":"LineString","coordinates":[[19.939936,50.050771],[19.945429,50.047246],[19.945429,50.038432]]}},{"type":"Feature","properties":{"id":"c987","lines":"8 10 13 18 76","n":5,"bus":0},"geometry":{"type":"LineString","coordinates":[[19.939936,50.050771],[19.93719,50.052534],[19.93719,50.054296]]}},{"type":"Feature","properties":{"id":"c988","lines":"3 22 52 62 69 74 77","n":7,"bus":1},"geometry":{"type":"LineString","coordinates":[[19.948175,50.057822],[19.948175,50.059584],[19.942682,50.06311]]}},{"type":"Feature","properties":{"id":"c989","lines":"3 69 74 77","n":4,"bus":1},"geometry":{"type":"LineString","coordinates":[[19.948175,50.057822],[19.959161,50.050771],[19.959161,50.04372]]}},{"type":"Feature","properties":{"id":"c990","lines":"1 77","n":2,"bus":1},"geometry":{"type":"LineString","coordinates":[[19.942682,50.06311],[19.93719,50.06311],[19.934443,50.061347]]}},{"type":"Feature","properties":{"id":"c991","lines":"10 18 76","n":3,"bus":0},"geometry":{"type":"LineString","coordinates":[[19.942682,50.06311],[19.942682,50.057822],[19.93719,50.054296]]}},{"type":"Feature","properties":{"id":"c992","lines":"10 18 76","n":3,"bus":0},"geometry":{"type":"LineString","coordinates":[[19.942682,50.06311],[19.93719,50.059584]]}},{"type":"Feature","properties":{"id":"c993","lines":"3 13 69 74","n":4,"bus":1},"geometry":{"type":"LineString","coordinates":[[19.983879,50.024331],[19.97564,50.029619]]}},{"type":"Feature","properties":{"id":"c994","lines":"9 11 49 50","n":4,"bus":0},"geometry":{"type":"LineString","coordinates":[[19.983879,50.024331],[19.983879,50.029619]]}},{"type":"Feature","properties":{"id":"c995","lines":"76","n":1,"bus":0},"geometry":{"type":"LineString","coordinates":[[19.97564,50.029619],[19.983879,50.029619]]}},{"type":"Feature","properties":{"id":"c996","lines":"77","n":1,"bus":0},"geometry":{"type":"LineString","coordinates":[[19.959161,50.04372],[19.950922,50.038432],[19.945429,50.038432]]}},{"type":"Feature","properties":{"id":"c997","lines":"1 8 13 77","n":4,"bus":1},"geometry":{"type":"LineString","coordinates":[[19.934443,50.061347],[19.92895,50.061347]]}},{"type":"Feature","properties":{"id":"c998","lines":"8 13","n":2,"bus":0},"geometry":{"type":"LineString","coordinates":[[19.934443,50.061347],[19.93719,50.059584]]}},{"type":"Feature","properties":{"id":"c999","lines":"8 10 13 18 76","n":5,"bus":0},"geometry":{"type":"LineString","coordinates":[[19.93719,50.054296],[19.93719,50.059584]]}}]}